RTU MIREA 1 (RS51S)     
1 61785U 24199BC  25165.89358968  .00016310  00000+0  49487-3 0  9992
2 61785  97.3526  34.4404 0014955 167.1375 193.0253 15.34072542 77756
HADES-R                 
1 62690U 25009CK  25165.19019309  .00039173  00000+0  13679-2 0  9990
2 62690  97.4090 245.9777 0003855  97.3500 262.8179 15.29469502 22855
HADES-ICM               
1 63492U 25052BN  25165.22575307  .00025845  00000+0  10960-2 0  9999
2 63492  97.4312  59.2743 0012070  11.1286 349.0215 15.23034424 13962
