[
  {
    "OBJECT_NAME": "RTU MIREA 1 (RS51S)",
    "OBJECT_ID": "2024-199BC",
    "EPOCH": "2025-06-14T21:26:46.148352",
    "MEAN_MOTION": 15.34072542,
    "ECCENTRICITY": 0.0014955,
    "INCLINATION": 97.3526,
    "RA_OF_ASC_NODE": 34.4404,
    "ARG_OF_PERICENTER": 167.1375,
    "MEAN_ANOMALY": 193.0253,
    "EPHEMERIS_TYPE": 0,
    "CLASSIFICATION_TYPE": "U",
    "NORAD_CAT_ID": 61785,
    "ELEMENT_SET_NO": 999,
    "REV_AT_EPOCH": 7775,
    "BSTAR": 0.00049487,
    "MEAN_MOTION_DOT": 0.0001631,
    "MEAN_MOTION_DDOT": 0
  },
  {
    "OBJECT_NAME": "HADES-R",
    "OBJECT_ID": "2025-009CK",
    "EPOCH": "2025-06-14T04:33:52.682976",
    "MEAN_MOTION": 15.29469502,
    "ECCENTRICITY": 0.0003855,
    "INCLINATION": 97.409,
    "RA_OF_ASC_NODE": 245.9777,
    "ARG_OF_PERICENTER": 97.35,
    "MEAN_ANOMALY": 262.8179,
    "EPHEMERIS_TYPE": 0,
    "CLASSIFICATION_TYPE": "U",
    "NORAD_CAT_ID": 62690,
    "ELEMENT_SET_NO": 999,
    "REV_AT_EPOCH": 2285,
    "BSTAR": 0.0013679,
    "MEAN_MOTION_DOT": 0.00039173,
    "MEAN_MOTION_DDOT": 0
  },
  {
    "OBJECT_NAME": "HADES-ICM",
    "OBJECT_ID": "2025-052BN",
    "EPOCH": "2025-06-14T05:25:05.065248",
    "MEAN_MOTION": 15.23034424,
    "ECCENTRICITY": 0.001207,
    "INCLINATION": 97.4312,
    "RA_OF_ASC_NODE": 59.2743,
    "ARG_OF_PERICENTER": 11.1286,
    "MEAN_ANOMALY": 349.0215,
    "EPHEMERIS_TYPE": 0,
    "CLASSIFICATION_TYPE": "U",
    "NORAD_CAT_ID": 63492,
    "ELEMENT_SET_NO": 999,
    "REV_AT_EPOCH": 1396,
    "BSTAR": 0.001096,
    "MEAN_MOTION_DOT": 0.00025845,
    "MEAN_MOTION_DDOT": 0
  }
]